IRIDIUM 7               
1 24793U 97020B   25092.56768098  .00000867  00000+0  29265-3 0  9997
2 24793  86.4015 208.5567 0002106  87.2021 272.9416 14.35861309461049
IRIDIUM 5               
1 24795U 97020D   25092.55623567  .00009156  00000+0  76607-3 0  9991
2 24795  86.3858 118.6028 0112854  50.8271 310.2917 14.93417627474201
IRIDIUM 4               
1 24796U 97020E   25092.59869662  .00000886  00000+0  29396-3 0  9998
2 24796  86.4014 205.4736 0002229  92.9800 267.1652 14.36770449461615
IRIDIUM 914             
1 24836U 97030A   25092.60423498  .00001065  00000+0  32680-3 0  9999
2 24836  86.3980 214.2951 0003719 101.1010 259.0608 14.40777330596249
IRIDIUM 16              
1 24841U 97030F   25092.45093820  .00001057  00000+0  33889-3 0  9993
2 24841  86.4025 237.0697 0001525  17.1677 342.9572 14.38619456456118
IRIDIUM 911             
1 24842U 97030G   25092.63256181  .00001388  00000+0  37193-3 0  9994
2 24842  86.4453 235.8419 0013867 358.1701   1.9449 14.47510986464156
IRIDIUM 17              
1 24870U 97034B   25092.53054381  .00000976  00000+0  31831-3 0  9991
2 24870  86.3900 266.5748 0000482 117.4156 242.7091 14.37726892452719
IRIDIUM 920             
1 24871U 97034C   25092.49002823  .00001007  00000+0  30444-3 0  9996
2 24871  86.3947 245.9745 0010653 341.4454  18.6355 14.41434691455679
